{
  "type": "FeatureCollection",
  "features": [
    {
      "type": "Feature",
      "properties": {
        "norad_id": 44334,
        "name": "EUTELSAT 7C",
        "group": "eutelsat",
        "lat": 0.012529196395741076,
        "lon": -157.77211301780417,
        "alt_km": 35775.42878392445,
        "timestamp": "2025-12-10T07:43:54.445455+00:00",
        "meta_object_name": "EUTELSAT 7C",
        "meta_object_id": "2019-034B",
        "meta_epoch": "2025-12-09T13:36:22.491072",
        "meta_mean_motion": 1.00270697,
        "meta_eccentricity": 0.0003372,
        "meta_inclination": 0.0732,
        "meta_ra_of_asc_node": 179.2397,
        "meta_arg_of_pericenter": 63.0249,
        "meta_mean_anomaly": 47.3664,
        "meta_ephemeris_type": 0,
        "meta_classification_type": "U",
        "meta_norad_cat_id": 44334,
        "meta_element_set_no": 999,
        "meta_rev_at_epoch": 493,
        "meta_bstar": 0,
        "meta_mean_motion_dot": 5e-07,
        "meta_mean_motion_ddot": 0,
        "tle_line1": "1 44334U 19034B   25343.56692698  .00000050  00000+0  00000+0 0  9996",
        "tle_line2": "2 44334   0.0732 179.2397 0003372  63.0249  47.3664  1.00270697  4937"
      },
      "geometry": {
        "type": "Point",
        "coordinates": [
          -157.77211301780417,
          0.012529196395741076
        ]
      }
    },
    {
      "type": "Feature",
      "properties": {
        "norad_id": 44624,
        "name": "EUTELSAT 5 WEST B",
        "group": "eutelsat",
        "lat": -0.040235368954831444,
        "lon": -169.76600347833312,
        "alt_km": 35780.89381994174,
        "timestamp": "2025-12-10T07:43:54.445466+00:00",
        "meta_object_name": "EUTELSAT 5 WEST B",
        "meta_object_id": "2019-067A",
        "meta_epoch": "2025-12-09T04:59:20.915808",
        "meta_mean_motion": 1.00271075,
        "meta_eccentricity": 0.0003516,
        "meta_inclination": 0.0644,
        "meta_ra_of_asc_node": 341.3724,
        "meta_arg_of_pericenter": 277.7318,
        "meta_mean_anomaly": 248.9352,
        "meta_ephemeris_type": 0,
        "meta_classification_type": "U",
        "meta_norad_cat_id": 44624,
        "meta_element_set_no": 999,
        "meta_rev_at_epoch": 2253,
        "meta_bstar": 0,
        "meta_mean_motion_dot": -4e-07,
        "meta_mean_motion_ddot": 0,
        "tle_line1": "1 44624U 19067A   25343.20788097 -.00000040  00000+0  00000+0 0  9994",
        "tle_line2": "2 44624   0.0644 341.3724 0003516 277.7318 248.9352  1.00271075 22538"
      },
      "geometry": {
        "type": "Point",
        "coordinates": [
          -169.76600347833312,
          -0.040235368954831444
        ]
      }
    },
    {
      "type": "Feature",
      "properties": {
        "norad_id": 45027,
        "name": "EUTELSAT KONNECT",
        "group": "eutelsat",
        "lat": 0.053610267120022786,
        "lon": -157.56371093327766,
        "alt_km": 35786.165608090116,
        "timestamp": "2025-12-10T07:43:54.445478+00:00",
        "meta_object_name": "EUTELSAT KONNECT",
        "meta_object_id": "2020-005B",
        "meta_epoch": "2025-12-09T13:36:22.491072",
        "meta_mean_motion": 1.00268326,
        "meta_eccentricity": 0.0001724,
        "meta_inclination": 0.0708,
        "meta_ra_of_asc_node": 96.4428,
        "meta_arg_of_pericenter": 189.6907,
        "meta_mean_anomaly": 3.7069,
        "meta_ephemeris_type": 0,
        "meta_classification_type": "U",
        "meta_norad_cat_id": 45027,
        "meta_element_set_no": 999,
        "meta_rev_at_epoch": 2243,
        "meta_bstar": 0,
        "meta_mean_motion_dot": 5.1e-07,
        "meta_mean_motion_ddot": 0,
        "tle_line1": "1 45027U 20005B   25343.56692698  .00000051  00000+0  00000+0 0  9997",
        "tle_line2": "2 45027   0.0708  96.4428 0001724 189.6907   3.7069  1.00268326 22436"
      },
      "geometry": {
        "type": "Point",
        "coordinates": [
          -157.56371093327766,
          0.053610267120022786
        ]
      }
    },
    {
      "type": "Feature",
      "properties": {
        "norad_id": 49056,
        "name": "EUTELSAT QUANTUM",
        "group": "eutelsat",
        "lat": -0.027764843711190163,
        "lon": -117.05030636359359,
        "alt_km": 35772.383684543056,
        "timestamp": "2025-12-10T07:43:54.445490+00:00",
        "meta_object_name": "EUTELSAT QUANTUM",
        "meta_object_id": "2021-069B",
        "meta_epoch": "2025-12-09T17:32:38.679936",
        "meta_mean_motion": 1.00271024,
        "meta_eccentricity": 0.0003738,
        "meta_inclination": 0.0152,
        "meta_ra_of_asc_node": 15.1536,
        "meta_arg_of_pericenter": 256.8174,
        "meta_mean_anomaly": 117.6055,
        "meta_ephemeris_type": 0,
        "meta_classification_type": "U",
        "meta_norad_cat_id": 49056,
        "meta_element_set_no": 999,
        "meta_rev_at_epoch": 1602,
        "meta_bstar": 0,
        "meta_mean_motion_dot": 1.29e-06,
        "meta_mean_motion_ddot": 0,
        "tle_line1": "1 49056U 21069B   25343.73100324  .00000129  00000+0  00000+0 0  9999",
        "tle_line2": "2 49056   0.0152  15.1536 0003738 256.8174 117.6055  1.00271024 16020"
      },
      "geometry": {
        "type": "Point",
        "coordinates": [
          -117.05030636359359,
          -0.027764843711190163
        ]
      }
    },
    {
      "type": "Feature",
      "properties": {
        "norad_id": 53765,
        "name": "EUTELSAT KONNECT VHTS",
        "group": "eutelsat",
        "lat": 0.04989571224038295,
        "lon": -162.04080416850542,
        "alt_km": 35777.89858795536,
        "timestamp": "2025-12-10T07:43:54.445502+00:00",
        "meta_object_name": "EUTELSAT KONNECT VHTS",
        "meta_object_id": "2022-110A",
        "meta_epoch": "2025-12-09T13:35:00.120768",
        "meta_mean_motion": 1.00270861,
        "meta_eccentricity": 0.0002601,
        "meta_inclination": 0.0638,
        "meta_ra_of_asc_node": 102.0206,
        "meta_arg_of_pericenter": 136.0408,
        "meta_mean_anomaly": 46.9506,
        "meta_ephemeris_type": 0,
        "meta_classification_type": "U",
        "meta_norad_cat_id": 53765,
        "meta_element_set_no": 999,
        "meta_rev_at_epoch": 492,
        "meta_bstar": 0,
        "meta_mean_motion_dot": 1.9e-07,
        "meta_mean_motion_ddot": 0,
        "tle_line1": "1 53765U 22110A   25343.56597362  .00000019  00000+0  00000+0 0  9990",
        "tle_line2": "2 53765   0.0638 102.0206 0002601 136.0408  46.9506  1.00270861  4927"
      },
      "geometry": {
        "type": "Point",
        "coordinates": [
          -162.04080416850542,
          0.04989571224038295
        ]
      }
    },
    {
      "type": "Feature",
      "properties": {
        "norad_id": 54048,
        "name": "EUTELSAT HOTBIRD 13F",
        "group": "eutelsat",
        "lat": -0.060399228378569356,
        "lon": -151.72294282619663,
        "alt_km": 35793.28161421274,
        "timestamp": "2025-12-10T07:43:54.445513+00:00",
        "meta_object_name": "EUTELSAT HOTBIRD 13F",
        "meta_object_id": "2022-134A",
        "meta_epoch": "2025-12-09T13:37:59.835360",
        "meta_mean_motion": 1.00271023,
        "meta_eccentricity": 0.0002003,
        "meta_inclination": 0.0496,
        "meta_ra_of_asc_node": 291.6475,
        "meta_arg_of_pericenter": 63.5101,
        "meta_mean_anomaly": 300.9159,
        "meta_ephemeris_type": 0,
        "meta_classification_type": "U",
        "meta_norad_cat_id": 54048,
        "meta_element_set_no": 999,
        "meta_rev_at_epoch": 1147,
        "meta_bstar": 0,
        "meta_mean_motion_dot": 8.9e-07,
        "meta_mean_motion_ddot": 0,
        "tle_line1": "1 54048U 22134A   25343.56805365  .00000089  00000+0  00000+0 0  9993",
        "tle_line2": "2 54048   0.0496 291.6475 0002003  63.5101 300.9159  1.00271023 11473"
      },
      "geometry": {
        "type": "Point",
        "coordinates": [
          -151.72294282619663,
          -0.060399228378569356
        ]
      }
    },
    {
      "type": "Feature",
      "properties": {
        "norad_id": 54225,
        "name": "EUTELSAT HOTBIRD 13G",
        "group": "eutelsat",
        "lat": -0.03535189289134333,
        "lon": -151.72780308088804,
        "alt_km": 35778.962977370385,
        "timestamp": "2025-12-10T07:43:54.445525+00:00",
        "meta_object_name": "EUTELSAT HOTBIRD 13G",
        "meta_object_id": "2022-146A",
        "meta_epoch": "2025-12-09T13:37:59.835360",
        "meta_mean_motion": 1.00269983,
        "meta_eccentricity": 0.0001954,
        "meta_inclination": 0.0499,
        "meta_ra_of_asc_node": 236.5921,
        "meta_arg_of_pericenter": 308.535,
        "meta_mean_anomaly": 110.9231,
        "meta_ephemeris_type": 0,
        "meta_classification_type": "U",
        "meta_norad_cat_id": 54225,
        "meta_element_set_no": 999,
        "meta_rev_at_epoch": 556,
        "meta_bstar": 0,
        "meta_mean_motion_dot": 8.9e-07,
        "meta_mean_motion_ddot": 0,
        "tle_line1": "1 54225U 22146A   25343.56805365  .00000089  00000+0  00000+0 0  9993",
        "tle_line2": "2 54225   0.0499 236.5921 0001954 308.5350 110.9231  1.00269983  5564"
      },
      "geometry": {
        "type": "Point",
        "coordinates": [
          -151.72780308088804,
          -0.03535189289134333
        ]
      }
    }
  ]
}